SWIFT                   
1 28485U 04047A   26095.45740687  .00059130  00000+0  63617-3 0  9998
2 28485  20.5544  23.1109 0002954  14.1211 345.9316 15.61958526175456
HINODE (SOLAR-B)        
1 29479U 06041A   26095.75859092  .00001011  00000+0  18231-3 0  9999
2 29479  98.0602 112.9689 0018136 153.8415 206.3710 14.68521608 44244
SHIJIAN-6 02A (SJ-6 02A)
1 29505U 06046A   26095.97307139  .00004974  00000+0  26152-3 0  9990
2 29505  97.6443 136.5131 0004101  51.6746 308.4855 15.16135447 61323
SHIJIAN-6 02B (SJ-6 02B)
1 29506U 06046B   26095.96222862  .00002146  00000+0  17203-3 0  9995
2 29506  97.7103 125.4878 0012116 314.3352  45.6878 15.01142163 59903
FGRST (GLAST)           
1 33053U 08029A   26095.93110021  .00004530  00000+0  17034-3 0  9991
2 33053  25.5841 346.0389 0008034 191.0894 168.9468 15.23556656984806
SDO                     
1 36395U 10005A   26093.00669913 -.00000054  00000+0  00000+0 0  9994
2 36395  34.4952  87.4755 0000578  22.7728 341.7255  1.00274249 59313
CRYOSAT 2               
1 36508U 10013A   26095.92217629  .00000335  00000+0  82469-4 0  9990
2 36508  92.0257 259.7749 0002460  96.8721 263.2766 14.51899183847591
X-SAT                   
1 37389U 11015C   26095.91335804  .00000253  00000+0  12524-3 0  9999
2 37389  98.3468  76.4018 0013582 190.5961 169.4936 14.25184835777387
GCOM-W1 (SHIZUKU)       
1 38337U 12025A   26095.86228700  .00000840  00000+0  19645-3 0  9998
2 38337  98.2089  37.5223 0001106  75.7164 351.2020 14.57140276738505
NUSTAR                  
1 38358U 12031A   26096.00002315  .00009233  00000+0  52662-3 0  9998
2 38358   6.0266 215.3370 0006916 120.4027  10.1906 15.08107405  1300
NEOSSAT                 
1 39089U 13009D   26095.45620582  .00000243  00000+0  98686-4 0  9995
2 39089  98.4161 277.2219 0012176 102.3724 257.8825 14.35800340686304
BRITE-AUSTRIA           
1 39091U 13009F   26095.76952709  .00000309  00000+0  11981-3 0  9996
2 39091  98.3977 277.0021 0011398  96.1782 264.0703 14.36512684686654
IRIS                    
1 39197U 13033A   26095.56739159  .00002057  00000+0  24211-3 0  9992
2 39197  97.9379 295.0569 0024135 193.5128 166.5444 14.85733932689597
